[{"OBJECT_NAME":"STARLINK-6044","OBJECT_ID":"2023-064AH","EPOCH":"2026-03-09T13:25:56.817696","MEAN_MOTION":14.98326461,"ECCENTRICITY":0.0003376,"INCLINATION":69.9997,"RA_OF_ASC_NODE":124.6333,"ARG_OF_PERICENTER":269.6306,"MEAN_ANOMALY":90.4466,"EPHEMERIS_TYPE":0,"CLASSIFICATION_TYPE":"U","NORAD_CAT_ID":56479,"ELEMENT_SET_NO":999,"REV_AT_EPOCH":15572,"BSTAR":-5.2639e-5,"MEAN_MOTION_DOT":-7.21e-6,"MEAN_MOTION_DDOT":0},{"OBJECT_NAME":"COSMOS 374 DEB","OBJECT_ID":"1970-089K","EPOCH":"2026-03-09T10:49:05.969856","MEAN_MOTION":13.67888998,"ECCENTRICITY":0.06745217,"INCLINATION":62.9248,"RA_OF_ASC_NODE":184.2517,"ARG_OF_PERICENTER":114.5683,"MEAN_ANOMALY":252.716,"EPHEMERIS_TYPE":0,"CLASSIFICATION_TYPE":"U","NORAD_CAT_ID":4667,"ELEMENT_SET_NO":999,"REV_AT_EPOCH":67502,"BSTAR":0.0012077936,"MEAN_MOTION_DOT":5.178e-5,"MEAN_MOTION_DDOT":0}]
